CTC1_L_00350001-01
1 10000U 25580ML  26075.70033565  .00000000  00000+0  00000-0 0  9999
2 10000  45.0000   0.0000 0000000   0.0000   0.0000 13.72670257    13
CTC1_L_00350001-02
1 10001U 23671X   26075.70033565  .00000000  00000+0  00000-0 0  9999
2 10001  45.0000   0.0000 0000000   0.0000  90.0000 13.72670257    13
CTC1_L_00350001-03
1 10002U 22244GD  26075.70033565  .00000000  00000+0  00000-0 0  9995
2 10002  45.0000   0.0000 0000000   0.0000 180.0000 13.72670257    14
CTC1_L_00350001-04
1 10003U 26050OP  26075.70033565  .00000000  00000+0  00000-0 0  9995
2 10003  45.0000   0.0000 0000000   0.0000 270.0000 13.72670257    15
CTC1_L_00350002-01
1 10004U 25776RZ  26075.70033565  .00000000  00000+0  00000-0 0  9990
2 10004  45.0000  12.0000 0000000   0.0000  12.0000 13.72670257    13
CTC1_L_00350002-02
1 10005U 22084PF  26075.70033565  .00000000  00000+0  00000-0 0  9990
2 10005  45.0000  12.0000 0000000   0.0000 102.0000 13.72670257    14
CTC1_L_00350002-03
1 10006U 22952IM  26075.70033565  .00000000  00000+0  00000-0 0  9995
2 10006  45.0000  12.0000 0000000   0.0000 192.0000 13.72670257    14
CTC1_L_00350002-04
1 10007U 26632XA  26075.70033565  .00000000  00000+0  00000-0 0  9995
2 10007  45.0000  12.0000 0000000   0.0000 282.0000 13.72670257    15
CTC1_L_00350003-01
1 10008U 24620DO  26075.70033565  .00000000  00000+0  00000-0 0  9991
2 10008  45.0000  24.0000 0000000   0.0000  24.0000 13.72670257    13
CTC1_L_00350003-02
1 10009U 26409KX  26075.70033565  .00000000  00000+0  00000-0 0  9999
2 10009  45.0000  24.0000 0000000   0.0000 114.0000 13.72670257    14
CTC1_L_00350003-03
1 10010U 23320OQ  26075.70033565  .00000000  00000+0  00000-0 0  9990
2 10010  45.0000  24.0000 0000000   0.0000 204.0000 13.72670257    16
CTC1_L_00350003-04
1 10011U 25164JF  26075.70033565  .00000000  00000+0  00000-0 0  9999
2 10011  45.0000  24.0000 0000000   0.0000 294.0000 13.72670257    16
CTC1_L_00350004-01
1 10012U 25793LQ  26075.70033565  .00000000  00000+0  00000-0 0  9998
2 10012  45.0000  36.0000 0000000   0.0000  36.0000 13.72670257    14
CTC1_L_00350004-02
1 10013U 24824US  26075.70033565  .00000000  00000+0  00000-0 0  9993
2 10013  45.0000  36.0000 0000000   0.0000 126.0000 13.72670257    15
CTC1_L_00350004-03
1 10014U 22533DS  26075.70033565  .00000000  00000+0  00000-0 0  9999
2 10014  45.0000  36.0000 0000000   0.0000 216.0000 13.72670257    16
CTC1_L_00350004-04
1 10015U 26574ET  26075.70033565  .00000000  00000+0  00000-0 0  9999
2 10015  45.0000  36.0000 0000000   0.0000 306.0000 13.72670257    17
CTC1_L_00350005-01
1 10016U 25843IP  26075.70033565  .00000000  00000+0  00000-0 0  9998
2 10016  45.0000  48.0000 0000000   0.0000  48.0000 13.72670257    14
CTC1_L_00350005-02
1 10017U 22897J   26075.70033565  .00000000  00000+0  00000-0 0  9995
2 10017  45.0000  48.0000 0000000   0.0000 138.0000 13.72670257    15
CTC1_L_00350005-03
1 10018U 26169JZ  26075.70033565  .00000000  00000+0  00000-0 0  9992
2 10018  45.0000  48.0000 0000000   0.0000 228.0000 13.72670257    16
CTC1_L_00350005-04
1 10019U 26859VF  26075.70033565  .00000000  00000+0  00000-0 0  9999
2 10019  45.0000  48.0000 0000000   0.0000 318.0000 13.72670257    17
CTC1_L_00350006-01
1 10020U 25426JW  26075.70033565  .00000000  00000+0  00000-0 0  9990
2 10020  45.0000  60.0000 0000000   0.0000  60.0000 13.72670257    17
CTC1_L_00350006-02
1 10021U 22525C   26075.70033565  .00000000  00000+0  00000-0 0  9998
2 10021  45.0000  60.0000 0000000   0.0000 150.0000 13.72670257    18
CTC1_L_00350006-03
1 10022U 24808TO  26075.70033565  .00000000  00000+0  00000-0 0  9995
2 10022  45.0000  60.0000 0000000   0.0000 240.0000 13.72670257    19
CTC1_L_00350006-04
1 10023U 26711VR  26075.70033565  .00000000  00000+0  00000-0 0  9991
2 10023  45.0000  60.0000 0000000   0.0000 330.0000 13.72670257    10
CTC1_L_00350007-01
1 10024U 23778CT  26075.70033565  .00000000  00000+0  00000-0 0  9992
2 10024  45.0000  72.0000 0000000   0.0000  72.0000 13.72670257    17
CTC1_L_00350007-02
1 10025U 25044XJ  26075.70033565  .00000000  00000+0  00000-0 0  9991
2 10025  45.0000  72.0000 0000000   0.0000 162.0000 13.72670257    18
CTC1_L_00350007-03
1 10026U 24878CM  26075.70033565  .00000000  00000+0  00000-0 0  9996
2 10026  45.0000  72.0000 0000000   0.0000 252.0000 13.72670257    19
CTC1_L_00350007-04
1 10027U 22684NP  26075.70033565  .00000000  00000+0  00000-0 0  9990
2 10027  45.0000  72.0000 0000000   0.0000 342.0000 13.72670257    10
CTC1_L_00350008-01
1 10028U 26638DT  26075.70033565  .00000000  00000+0  00000-0 0  9994
2 10028  45.0000  84.0000 0000000   0.0000  84.0000 13.72670257    17
CTC1_L_00350008-02
1 10029U 25226AH  26075.70033565  .00000000  00000+0  00000-0 0  9997
2 10029  45.0000  84.0000 0000000   0.0000 174.0000 13.72670257    18
CTC1_L_00350008-03
1 10030U 25801VL  26075.70033565  .00000000  00000+0  00000-0 0  9998
2 10030  45.0000  84.0000 0000000   0.0000 264.0000 13.72670257    10
CTC1_L_00350008-04
1 10031U 24272UJ  26075.70033565  .00000000  00000+0  00000-0 0  9990
2 10031  45.0000  84.0000 0000000   0.0000 354.0000 13.72670257    11
CTC1_L_00350009-01
1 10032U 22578UX  26075.70033565  .00000000  00000+0  00000-0 0  9998
2 10032  45.0000  96.0000 0000000   0.0000  96.0000 13.72670257    18
CTC1_L_00350009-02
1 10033U 26791CL  26075.70033565  .00000000  00000+0  00000-0 0  9990
2 10033  45.0000  96.0000 0000000   0.0000 186.0000 13.72670257    19
CTC1_L_00350009-03
1 10034U 22764PC  26075.70033565  .00000000  00000+0  00000-0 0  9997
2 10034  45.0000  96.0000 0000000   0.0000 276.0000 13.72670257    10
CTC1_L_00350009-04
1 10035U 22761MN  26075.70033565  .00000000  00000+0  00000-0 0  9995
2 10035  45.0000  96.0000 0000000   0.0000   6.0000 13.72670257    12
CTC1_L_00350010-01
1 10036U 24292EB  26075.70033565  .00000000  00000+0  00000-0 0  9997
2 10036  45.0000 108.0000 0000000   0.0000 108.0000 13.72670257    10
CTC1_L_00350010-02
1 10037U 23193YK  26075.70033565  .00000000  00000+0  00000-0 0  9997
2 10037  45.0000 108.0000 0000000   0.0000 198.0000 13.72670257    10
CTC1_L_00350010-03
1 10038U 23552PU  26075.70033565  .00000000  00000+0  00000-0 0  9997
2 10038  45.0000 108.0000 0000000   0.0000 288.0000 13.72670257    11
CTC1_L_00350010-04
1 10039U 25128EO  26075.70033565  .00000000  00000+0  00000-0 0  9999
2 10039  45.0000 108.0000 0000000   0.0000  18.0000 13.72670257    13
CTC1_L_00350011-01
1 10040U 26129Y   26075.70033565  .00000000  00000+0  00000-0 0  9993
2 10040  45.0000 120.0000 0000000   0.0000 120.0000 13.72670257    13
CTC1_L_00350011-02
1 10041U 23639WD  26075.70033565  .00000000  00000+0  00000-0 0  9997
2 10041  45.0000 120.0000 0000000   0.0000 210.0000 13.72670257    14
CTC1_L_00350011-03
1 10042U 22191JN  26075.70033565  .00000000  00000+0  00000-0 0  9990
2 10042  45.0000 120.0000 0000000   0.0000 300.0000 13.72670257    15
CTC1_L_00350011-04
1 10043U 25452EC  26075.70033565  .00000000  00000+0  00000-0 0  9994
2 10043  45.0000 120.0000 0000000   0.0000  30.0000 13.72670257    16
CTC1_L_00350012-01
1 10044U 26621SE  26075.70033565  .00000000  00000+0  00000-0 0  9994
2 10044  45.0000 132.0000 0000000   0.0000 132.0000 13.72670257    13
CTC1_L_00350012-02
1 10045U 22623ED  26075.70033565  .00000000  00000+0  00000-0 0  9993
2 10045  45.0000 132.0000 0000000   0.0000 222.0000 13.72670257    14
CTC1_L_00350012-03
1 10046U 26088DL  26075.70033565  .00000000  00000+0  00000-0 0  9993
2 10046  45.0000 132.0000 0000000   0.0000 312.0000 13.72670257    15
CTC1_L_00350012-04
1 10047U 24865D   26075.70033565  .00000000  00000+0  00000-0 0  9995
2 10047  45.0000 132.0000 0000000   0.0000  42.0000 13.72670257    16
CTC1_L_00350013-01
1 10048U 25215FE  26075.70033565  .00000000  00000+0  00000-0 0  9996
2 10048  45.0000 144.0000 0000000   0.0000 144.0000 13.72670257    13
CTC1_L_00350013-02
1 10049U 22470NB  26075.70033565  .00000000  00000+0  00000-0 0  9997
2 10049  45.0000 144.0000 0000000   0.0000 234.0000 13.72670257    14
CTC1_L_00350013-03
1 10050U 22041KP  26075.70033565  .00000000  00000+0  00000-0 0  9993
2 10050  45.0000 144.0000 0000000   0.0000 324.0000 13.72670257    16
CTC1_L_00350013-04
1 10051U 22058XT  26075.70033565  .00000000  00000+0  00000-0 0  9992
2 10051  45.0000 144.0000 0000000   0.0000  54.0000 13.72670257    17
CTC1_L_00350014-01
1 10052U 24807SL  26075.70033565  .00000000  00000+0  00000-0 0  9997
2 10052  45.0000 156.0000 0000000   0.0000 156.0000 13.72670257    14
CTC1_L_00350014-02
1 10053U 22758RJ  26075.70033565  .00000000  00000+0  00000-0 0  9991
2 10053  45.0000 156.0000 0000000   0.0000 246.0000 13.72670257    15
CTC1_L_00350014-03
1 10054U 26082AH  26075.70033565  .00000000  00000+0  00000-0 0  9996
2 10054  45.0000 156.0000 0000000   0.0000 336.0000 13.72670257    16
CTC1_L_00350014-04
1 10055U 25169UY  26075.70033565  .00000000  00000+0  00000-0 0  9992
2 10055  45.0000 156.0000 0000000   0.0000  66.0000 13.72670257    17
CTC1_L_00350015-01
1 10056U 23206UQ  26075.70033565  .00000000  00000+0  00000-0 0  9993
2 10056  45.0000 168.0000 0000000   0.0000 168.0000 13.72670257    14
CTC1_L_00350015-02
1 10057U 24936CE  26075.70033565  .00000000  00000+0  00000-0 0  9995
2 10057  45.0000 168.0000 0000000   0.0000 258.0000 13.72670257    15
CTC1_L_00350015-03
1 10058U 26518CJ  26075.70033565  .00000000  00000+0  00000-0 0  9994
2 10058  45.0000 168.0000 0000000   0.0000 348.0000 13.72670257    16
CTC1_L_00350015-04
1 10059U 25387AR  26075.70033565  .00000000  00000+0  00000-0 0  9998
2 10059  45.0000 168.0000 0000000   0.0000  78.0000 13.72670257    17
CTC1_L_00350016-01
1 10060U 24092WB  26075.70033565  .00000000  00000+0  00000-0 0  9992
2 10060  45.0000 180.0000 0000000   0.0000 180.0000 13.72670257    17
CTC1_L_00350016-02
1 10061U 25556IW  26075.70033565  .00000000  00000+0  00000-0 0  9999
2 10061  45.0000 180.0000 0000000   0.0000 270.0000 13.72670257    18
